BEIDOU-3 G1             
1 43683U 18085A   26087.92896718 -.00000296  00000+0  00000+0 0  9995
2 43683   2.8717  99.6104 0001565  22.6654 178.4615  1.00269317 27259
COSMOS 2529 [GLONASS-M] 
1 43687U 18086A   26084.18377329  .00000005  00000+0  00000+0 0  9994
2 43687  64.2947 195.4281 0008714 253.5032 106.4055  2.13101936 57494
BEIDOU-3 M17            
1 43706U 18093A   26086.20252153 -.00000037  00000+0  00000+0 0  9992
2 43706  54.1688 185.0778 0007874 293.7414  97.3651  1.86228280 50010
BEIDOU-3 M18            
1 43707U 18093B   26085.48163138 -.00000030  00000+0  00000+0 0  9999
2 43707  54.1700 185.0943 0006336 332.6760  27.2992  1.86226396 49990
NAVSTAR 77 (USA 289)    
1 43873U 18109A   26087.26453723  .00000045  00000+0  00000+0 0  9996
2 43873  55.6315  95.3771 0037867 198.7638 175.8510  2.00557717 53455
BEIDOU-3 IGSO-1         
1 44204U 19023A   26085.65707529 -.00000212  00000+0  00000+0 0  9995
2 44204  58.5860  38.4984 0025183 236.7446 263.8673  1.00263805  6382
BEIDOU-2 G8             
1 44231U 19027A   26087.92992051 -.00000267  00000+0  00000+0 0  9997
2 44231   1.4550  74.2784 0011415 275.5010 315.7753  1.00268267 25274
COSMOS 2534 [GLONASS-M] 
1 44299U 19030A   26085.95215376 -.00000022  00000+0  00000+0 0  9993
2 44299  64.3675 195.3834 0010587 278.5139 132.5290  2.13102185 53171
NAVSTAR 78 (USA 293)    
1 44506U 19056A   26086.66222638 -.00000084  00000+0  00000+0 0  9998
2 44506  55.6735 334.3842 0058566 197.7684   3.1076  2.00568459 48436
BEIDOU-3 M24            
1 44542U 19061A   26085.55133484 -.00000030  00000+0  00000+0 0  9992
2 44542  54.3970 185.5149 0008194  15.0686 344.9633  1.86228792 44252
BEIDOU-3 M23            
1 44543U 19061B   26086.19599552 -.00000037  00000+0  00000+0 0  9993
2 44543  54.3950 185.4615 0004848   1.0858 343.2659  1.86227116 44266
EUTELSAT 5 WEST B       
1 44624U 19067A   26087.90030492 -.00000062  00000+0  00000+0 0  9990
2 44624   0.0663 355.5502 0003276  15.7102 134.1387  1.00271376 23634
BEIDOU-3 IGSO-3         
1 44709U 19073A   26086.93821052 -.00000159  00000+0  00000+0 0  9990
2 44709  54.9409 281.7733 0041007 188.7198 171.1984  1.00261892 23647
BEIDOU-3 M22            
1 44793U 19078A   26086.46420429 -.00000031  00000+0  00000+0 0  9998
2 44793  54.0095 302.7034 0007454  41.3303 318.7622  1.86231892 43124
BEIDOU-3 M21            
1 44794U 19078B   26085.53035061 -.00000029  00000+0  00000+0 0  9997
2 44794  53.9841 302.6991 0005380  37.5776 322.4952  1.86227568 43112
COSMOS 2544 [GLONASS-M] 
1 44850U 19088A   26082.62369789  .00000036  00000+0  00000+0 0  9992
2 44850  65.5174  76.5851 0015791 260.6166  99.2133  2.13102020 48890
BEIDOU-3 M19            
1 44864U 19090A   26087.65347383 -.00000004  00000+0  00000+0 0  9990
2 44864  56.4908  65.4505 0020363 293.6581 246.5173  1.86231189 42736
